IRIDIUM 26              
1 24903U 97043A   25335.21206007  .00000396  00000+0  12610-3 0  9997
2 24903  86.3971  40.4075 0001983  97.1390 263.0033 14.37312699480738
IRIDIUM 22              
1 24907U 97043E   25335.48976625  .00000447  00000+0  14703-3 0  9992
2 24907  86.3975  43.9741 0002176  97.8829 262.2615 14.36109028480784
DUMMY MASS 1            
1 24925U 97048A   25335.50162104  .00000574  00000+0  60700-4 0  9999
2 24925  86.3353  57.9063 0004240 274.7412  85.3329 14.87166701529994
DUMMY MASS 2            
1 24926U 97048B   25335.49171241  .00000568  00000+0  60482-4 0  9990
2 24926  86.3353  59.5497 0005135 291.9716  68.0963 14.86917179529765
IRIDIUM 29              
1 24944U 97051A   25335.52175729  .00000549  00000+0  18009-3 0  9999
2 24944  86.3955  73.6532 0002290  95.4222 264.7236 14.36646203477298
IRIDIUM 33              
1 24946U 97051C   25335.34066703  .00000454  00000+0  15261-3 0  9994
2 24946  86.3871  73.0059 0005973 245.1047 114.9529 14.35023718476711
IRIDIUM 28              
1 24948U 97051E   25335.32017115  .00000541  00000+0  17397-3 0  9996
2 24948  86.3961  71.1575 0001604 102.0786 258.0592 14.37546626477859
IRIDIUM 36              
1 24967U 97056C   25335.39661375  .00000542  00000+0  17377-3 0  9991
2 24967  86.3952 102.7538 0001958 100.3523 259.7895 14.37766599476241
