<?xml version="1.0" encoding="UTF-8"?>
<ndm xmlns:xsi="http://www.w3.org/2001/XMLSchema-instance" xsi:noNamespaceSchemaLocation="https://sanaregistry.org/r/ndmxml_unqualified/ndmxml-2.0.0-master-2.0.xsd">
<omm id="CCSDS_OMM_VERS" version="2.0">
<header><CREATION_DATE/><ORIGINATOR/></header><body><segment><metadata><OBJECT_NAME>IRIDIUM 26</OBJECT_NAME><OBJECT_ID>1997-043A</OBJECT_ID><CENTER_NAME>EARTH</CENTER_NAME><REF_FRAME>TEME</REF_FRAME><TIME_SYSTEM>UTC</TIME_SYSTEM><MEAN_ELEMENT_THEORY>SGP4</MEAN_ELEMENT_THEORY></metadata><data><meanElements><EPOCH>2025-12-01T05:05:21.990048</EPOCH><MEAN_MOTION>14.37312699</MEAN_MOTION><ECCENTRICITY>.0001983</ECCENTRICITY><INCLINATION>86.3971</INCLINATION><RA_OF_ASC_NODE>40.4075</RA_OF_ASC_NODE><ARG_OF_PERICENTER>97.1390</ARG_OF_PERICENTER><MEAN_ANOMALY>263.0033</MEAN_ANOMALY></meanElements><tleParameters><EPHEMERIS_TYPE>0</EPHEMERIS_TYPE><CLASSIFICATION_TYPE>U</CLASSIFICATION_TYPE><NORAD_CAT_ID>24903</NORAD_CAT_ID><ELEMENT_SET_NO>999</ELEMENT_SET_NO><REV_AT_EPOCH>48073</REV_AT_EPOCH><BSTAR>.1261E-3</BSTAR><MEAN_MOTION_DOT>.396E-5</MEAN_MOTION_DOT><MEAN_MOTION_DDOT>0</MEAN_MOTION_DDOT></tleParameters></data></segment></body></omm>
<omm id="CCSDS_OMM_VERS" version="2.0">
<header><CREATION_DATE/><ORIGINATOR/></header><body><segment><metadata><OBJECT_NAME>IRIDIUM 22</OBJECT_NAME><OBJECT_ID>1997-043E</OBJECT_ID><CENTER_NAME>EARTH</CENTER_NAME><REF_FRAME>TEME</REF_FRAME><TIME_SYSTEM>UTC</TIME_SYSTEM><MEAN_ELEMENT_THEORY>SGP4</MEAN_ELEMENT_THEORY></metadata><data><meanElements><EPOCH>2025-12-01T11:45:15.804000</EPOCH><MEAN_MOTION>14.36109028</MEAN_MOTION><ECCENTRICITY>.0002176</ECCENTRICITY><INCLINATION>86.3975</INCLINATION><RA_OF_ASC_NODE>43.9741</RA_OF_ASC_NODE><ARG_OF_PERICENTER>97.8829</ARG_OF_PERICENTER><MEAN_ANOMALY>262.2615</MEAN_ANOMALY></meanElements><tleParameters><EPHEMERIS_TYPE>0</EPHEMERIS_TYPE><CLASSIFICATION_TYPE>U</CLASSIFICATION_TYPE><NORAD_CAT_ID>24907</NORAD_CAT_ID><ELEMENT_SET_NO>999</ELEMENT_SET_NO><REV_AT_EPOCH>48078</REV_AT_EPOCH><BSTAR>.14703E-3</BSTAR><MEAN_MOTION_DOT>.447E-5</MEAN_MOTION_DOT><MEAN_MOTION_DDOT>0</MEAN_MOTION_DDOT></tleParameters></data></segment></body></omm>
<omm id="CCSDS_OMM_VERS" version="2.0">
<header><CREATION_DATE/><ORIGINATOR/></header><body><segment><metadata><OBJECT_NAME>DUMMY MASS 1</OBJECT_NAME><OBJECT_ID>1997-048A</OBJECT_ID><CENTER_NAME>EARTH</CENTER_NAME><REF_FRAME>TEME</REF_FRAME><TIME_SYSTEM>UTC</TIME_SYSTEM><MEAN_ELEMENT_THEORY>SGP4</MEAN_ELEMENT_THEORY></metadata><data><meanElements><EPOCH>2025-12-01T12:02:20.057856</EPOCH><MEAN_MOTION>14.87166701</MEAN_MOTION><ECCENTRICITY>.000424</ECCENTRICITY><INCLINATION>86.3353</INCLINATION><RA_OF_ASC_NODE>57.9063</RA_OF_ASC_NODE><ARG_OF_PERICENTER>274.7412</ARG_OF_PERICENTER><MEAN_ANOMALY>85.3329</MEAN_ANOMALY></meanElements><tleParameters><EPHEMERIS_TYPE>0</EPHEMERIS_TYPE><CLASSIFICATION_TYPE>U</CLASSIFICATION_TYPE><NORAD_CAT_ID>24925</NORAD_CAT_ID><ELEMENT_SET_NO>999</ELEMENT_SET_NO><REV_AT_EPOCH>52999</REV_AT_EPOCH><BSTAR>.607E-4</BSTAR><MEAN_MOTION_DOT>.574E-5</MEAN_MOTION_DOT><MEAN_MOTION_DDOT>0</MEAN_MOTION_DDOT></tleParameters></data></segment></body></omm>
<omm id="CCSDS_OMM_VERS" version="2.0">
<header><CREATION_DATE/><ORIGINATOR/></header><body><segment><metadata><OBJECT_NAME>DUMMY MASS 2</OBJECT_NAME><OBJECT_ID>1997-048B</OBJECT_ID><CENTER_NAME>EARTH</CENTER_NAME><REF_FRAME>TEME</REF_FRAME><TIME_SYSTEM>UTC</TIME_SYSTEM><MEAN_ELEMENT_THEORY>SGP4</MEAN_ELEMENT_THEORY></metadata><data><meanElements><EPOCH>2025-12-01T11:48:03.952224</EPOCH><MEAN_MOTION>14.86917179</MEAN_MOTION><ECCENTRICITY>.0005135</ECCENTRICITY><INCLINATION>86.3353</INCLINATION><RA_OF_ASC_NODE>59.5497</RA_OF_ASC_NODE><ARG_OF_PERICENTER>291.9716</ARG_OF_PERICENTER><MEAN_ANOMALY>68.0963</MEAN_ANOMALY></meanElements><tleParameters><EPHEMERIS_TYPE>0</EPHEMERIS_TYPE><CLASSIFICATION_TYPE>U</CLASSIFICATION_TYPE><NORAD_CAT_ID>24926</NORAD_CAT_ID><ELEMENT_SET_NO>999</ELEMENT_SET_NO><REV_AT_EPOCH>52976</REV_AT_EPOCH><BSTAR>.60482E-4</BSTAR><MEAN_MOTION_DOT>.568E-5</MEAN_MOTION_DOT><MEAN_MOTION_DDOT>0</MEAN_MOTION_DDOT></tleParameters></data></segment></body></omm>
<omm id="CCSDS_OMM_VERS" version="2.0">
<header><CREATION_DATE/><ORIGINATOR/></header><body><segment><metadata><OBJECT_NAME>IRIDIUM 29</OBJECT_NAME><OBJECT_ID>1997-051A</OBJECT_ID><CENTER_NAME>EARTH</CENTER_NAME><REF_FRAME>TEME</REF_FRAME><TIME_SYSTEM>UTC</TIME_SYSTEM><MEAN_ELEMENT_THEORY>SGP4</MEAN_ELEMENT_THEORY></metadata><data><meanElements><EPOCH>2025-12-01T12:31:19.829856</EPOCH><MEAN_MOTION>14.36646203</MEAN_MOTION><ECCENTRICITY>.000229</ECCENTRICITY><INCLINATION>86.3955</INCLINATION><RA_OF_ASC_NODE>73.6532</RA_OF_ASC_NODE><ARG_OF_PERICENTER>95.4222</ARG_OF_PERICENTER><MEAN_ANOMALY>264.7236</MEAN_ANOMALY></meanElements><tleParameters><EPHEMERIS_TYPE>0</EPHEMERIS_TYPE><CLASSIFICATION_TYPE>U</CLASSIFICATION_TYPE><NORAD_CAT_ID>24944</NORAD_CAT_ID><ELEMENT_SET_NO>999</ELEMENT_SET_NO><REV_AT_EPOCH>47729</REV_AT_EPOCH><BSTAR>.18009E-3</BSTAR><MEAN_MOTION_DOT>.549E-5</MEAN_MOTION_DOT><MEAN_MOTION_DDOT>0</MEAN_MOTION_DDOT></tleParameters></data></segment></body></omm>
<omm id="CCSDS_OMM_VERS" version="2.0">
<header><CREATION_DATE/><ORIGINATOR/></header><body><segment><metadata><OBJECT_NAME>IRIDIUM 33</OBJECT_NAME><OBJECT_ID>1997-051C</OBJECT_ID><CENTER_NAME>EARTH</CENTER_NAME><REF_FRAME>TEME</REF_FRAME><TIME_SYSTEM>UTC</TIME_SYSTEM><MEAN_ELEMENT_THEORY>SGP4</MEAN_ELEMENT_THEORY></metadata><data><meanElements><EPOCH>2025-12-01T08:10:33.631392</EPOCH><MEAN_MOTION>14.35023718</MEAN_MOTION><ECCENTRICITY>.0005973</ECCENTRICITY><INCLINATION>86.3871</INCLINATION><RA_OF_ASC_NODE>73.0059</RA_OF_ASC_NODE><ARG_OF_PERICENTER>245.1047</ARG_OF_PERICENTER><MEAN_ANOMALY>114.9529</MEAN_ANOMALY></meanElements><tleParameters><EPHEMERIS_TYPE>0</EPHEMERIS_TYPE><CLASSIFICATION_TYPE>U</CLASSIFICATION_TYPE><NORAD_CAT_ID>24946</NORAD_CAT_ID><ELEMENT_SET_NO>999</ELEMENT_SET_NO><REV_AT_EPOCH>47671</REV_AT_EPOCH><BSTAR>.15261E-3</BSTAR><MEAN_MOTION_DOT>.454E-5</MEAN_MOTION_DOT><MEAN_MOTION_DDOT>0</MEAN_MOTION_DDOT></tleParameters></data></segment></body></omm>
<omm id="CCSDS_OMM_VERS" version="2.0">
<header><CREATION_DATE/><ORIGINATOR/></header><body><segment><metadata><OBJECT_NAME>IRIDIUM 28</OBJECT_NAME><OBJECT_ID>1997-051E</OBJECT_ID><CENTER_NAME>EARTH</CENTER_NAME><REF_FRAME>TEME</REF_FRAME><TIME_SYSTEM>UTC</TIME_SYSTEM><MEAN_ELEMENT_THEORY>SGP4</MEAN_ELEMENT_THEORY></metadata><data><meanElements><EPOCH>2025-12-01T07:41:02.787360</EPOCH><MEAN_MOTION>14.37546626</MEAN_MOTION><ECCENTRICITY>.0001604</ECCENTRICITY><INCLINATION>86.3961</INCLINATION><RA_OF_ASC_NODE>71.1575</RA_OF_ASC_NODE><ARG_OF_PERICENTER>102.0786</ARG_OF_PERICENTER><MEAN_ANOMALY>258.0592</MEAN_ANOMALY></meanElements><tleParameters><EPHEMERIS_TYPE>0</EPHEMERIS_TYPE><CLASSIFICATION_TYPE>U</CLASSIFICATION_TYPE><NORAD_CAT_ID>24948</NORAD_CAT_ID><ELEMENT_SET_NO>999</ELEMENT_SET_NO><REV_AT_EPOCH>47785</REV_AT_EPOCH><BSTAR>.17397E-3</BSTAR><MEAN_MOTION_DOT>.541E-5</MEAN_MOTION_DOT><MEAN_MOTION_DDOT>0</MEAN_MOTION_DDOT></tleParameters></data></segment></body></omm>
<omm id="CCSDS_OMM_VERS" version="2.0">
<header><CREATION_DATE/><ORIGINATOR/></header><body><segment><metadata><OBJECT_NAME>IRIDIUM 36</OBJECT_NAME><OBJECT_ID>1997-056C</OBJECT_ID><CENTER_NAME>EARTH</CENTER_NAME><REF_FRAME>TEME</REF_FRAME><TIME_SYSTEM>UTC</TIME_SYSTEM><MEAN_ELEMENT_THEORY>SGP4</MEAN_ELEMENT_THEORY></metadata><data><meanElements><EPOCH>2025-12-01T09:31:07.428000</EPOCH><MEAN_MOTION>14.37766599</MEAN_MOTION><ECCENTRICITY>.0001958</ECCENTRICITY><INCLINATION>86.3952</INCLINATION><RA_OF_ASC_NODE>102.7538</RA_OF_ASC_NODE><ARG_OF_PERICENTER>100.3523</ARG_OF_PERICENTER><MEAN_ANOMALY>259.7895</MEAN_ANOMALY></meanElements><tleParameters><EPHEMERIS_TYPE>0</EPHEMERIS_TYPE><CLASSIFICATION_TYPE>U</CLASSIFICATION_TYPE><NORAD_CAT_ID>24967</NORAD_CAT_ID><ELEMENT_SET_NO>999</ELEMENT_SET_NO><REV_AT_EPOCH>47624</REV_AT_EPOCH><BSTAR>.17377E-3</BSTAR><MEAN_MOTION_DOT>.542E-5</MEAN_MOTION_DOT><MEAN_MOTION_DDOT>0</MEAN_MOTION_DDOT></tleParameters></data></segment></body></omm>

</ndm>
